[{"OBJECT_NAME":"STARLINK-6051","OBJECT_ID":"2023-064R","EPOCH":"2026-03-09T14:56:25.397088","MEAN_MOTION":14.98332799,"ECCENTRICITY":0.0003224,"INCLINATION":70.0006,"RA_OF_ASC_NODE":144.7164,"ARG_OF_PERICENTER":268.7718,"MEAN_ANOMALY":91.3071,"EPHEMERIS_TYPE":0,"CLASSIFICATION_TYPE":"U","NORAD_CAT_ID":56463,"ELEMENT_SET_NO":999,"REV_AT_EPOCH":15523,"BSTAR":-7.7445e-6,"MEAN_MOTION_DOT":-1.85e-6,"MEAN_MOTION_DDOT":0},{"OBJECT_NAME":"COSMOS 886 DEB","OBJECT_ID":"1976-126AV","EPOCH":"2026-03-07T08:56:28.923072","MEAN_MOTION":12.64010564,"ECCENTRICITY":0.10694533,"INCLINATION":65.8455,"RA_OF_ASC_NODE":305.2616,"ARG_OF_PERICENTER":209.6275,"MEAN_ANOMALY":143.9839,"EPHEMERIS_TYPE":0,"CLASSIFICATION_TYPE":"U","NORAD_CAT_ID":9955,"ELEMENT_SET_NO":999,"REV_AT_EPOCH":97636,"BSTAR":0.00012325066,"MEAN_MOTION_DOT":1.69e-6,"MEAN_MOTION_DDOT":0}]
